DUMMY MASS 1            
1 24925U 97048A   25282.47850978  .00000612  00000+0  65030-4 0  9993
2 24925  86.3297  82.4452 0008913  98.2297 261.9939 14.87089187522115
DUMMY MASS 2            
1 24926U 97048B   25282.45972182  .00000594  00000+0  63360-4 0  9997
2 24926  86.3296  84.0840 0009598 107.5697 252.6577 14.86840215521886
IRIDIUM 29              
1 24944U 97051A   25282.58582371  .00000564  00000+0  18535-3 0  9992
2 24944  86.3898  95.8888 0001912  89.0863 271.0554 14.36567848469690
IRIDIUM 33              
1 24946U 97051C   25282.48478322  .00000416  00000+0  13915-3 0  9996
2 24946  86.3815  95.2014 0009836  70.4213 289.8045 14.34965392469137
IRIDIUM 28              
1 24948U 97051E   25282.48708754  .00000559  00000+0  18030-3 0  9994
2 24948  86.3904  93.3784 0002631  85.0352 275.1146 14.37474083470264
